[
  {
    "id": 1761320816867,
    "name": "Cansu K",
    "company": "CK",
    "mobile_phone": "07123456789",
    "email_address": "x@y.com",
    "postcode": "EC1N 2SW",
    "pay_later": true,
    "pay_now": false
  },
  {
    "id": 1761320934129,
    "name": "Cansu Kaluc",
    "company": "CKa",
    "mobile_phone": "07987654321",
    "email_address": "x@y.com",
    "postcode": "W1A 0AX",
    "pay_later": true,
    "pay_now": true
  },
  {
    "id": 1761376743037,
    "name": "Cansu Ka",
    "company": "CKa",
    "mobile_phone": "07123123123",
    "email_address": "cka@x.com",
    "postcode": "W1A 0AX",
    "pay_later": true,
    "pay_now": false
  },
  {
    "id": 1761376782374,
    "name": "Cansu Kal",
    "company": "CKal",
    "mobile_phone": "07987987987",
    "email_address": "ckal@x.com",
    "postcode": "SW1A 1AA",
    "pay_later": false,
    "pay_now": true
  },
  {
    "id": 1761380912456,
    "name": "James Smith",
    "company": "Smith & Co",
    "mobile_phone": "07456789123",
    "email_address": "jsmith@example.com",
    "postcode": "N6 1BA",
    "pay_later": false,
    "pay_now": true
  },
  {
    "id": 1761381023567,
    "name": "Sarah Johnson",
    "company": "SJ Ltd",
    "mobile_phone": "07321654987",
    "email_address": "sjohnson@mail.com",
    "postcode": "M1 1AE",
    "pay_later": true,
    "pay_now": false
  },
  {
    "id": 1761381134678,
    "name": "David Williams",
    "company": "Williams Group",
    "mobile_phone": "07789456123",
    "email_address": "dwilliams@company.co.uk",
    "postcode": "B1 1AA",
    "pay_later": true,
    "pay_now": true
  },
  {
    "id": 1761381245789,
    "name": "Emma Brown",
    "company": "EB Enterprises",
    "mobile_phone": "07654321789",
    "email_address": "ebrown@business.com",
    "postcode": "EC1N 2SW",
    "pay_later": false,
    "pay_now": true
  },
  {
    "id": 1761381356890,
    "name": "Michael Davis",
    "company": "MD Solutions",
    "mobile_phone": "07147258369",
    "email_address": "mdavis@solutions.uk",
    "postcode": "SW1A 1AA",
    "pay_later": true,
    "pay_now": false
  },
  {
    "id": 1761381467901,
    "name": "Sophie Taylor",
    "company": "Taylor Tech",
    "mobile_phone": "07963852741",
    "email_address": "staylor@tech.com",
    "postcode": "W1A 0AX",
    "pay_later": false,
    "pay_now": false
  },
  {
    "id": 1761381578012,
    "name": "Robert Wilson",
    "company": "Wilson Industries",
    "mobile_phone": "07852963741",
    "email_address": "rwilson@industries.co.uk",
    "postcode": "N6 1BA",
    "pay_later": true,
    "pay_now": true
  },
  {
    "id": 1761381689123,
    "name": "Lucy Anderson",
    "company": "Anderson & Partners",
    "mobile_phone": "07741852963",
    "email_address": "landerson@partners.com",
    "postcode": "M1 1AE",
    "pay_later": false,
    "pay_now": true
  },
  {
    "id": 1761381790234,
    "name": "Thomas Moore",
    "company": "Moore Consulting",
    "mobile_phone": "07369147258",
    "email_address": "tmoore@consulting.uk",
    "postcode": "B1 1AA",
    "pay_later": true,
    "pay_now": false
  },
  {
    "id": 1761381891345,
    "name": "Olivia Martin",
    "company": "Martin Corp",
    "mobile_phone": "07258369147",
    "email_address": "omartin@corp.com",
    "postcode": "EC1N 2SW",
    "pay_later": true,
    "pay_now": true
  }
]
